COSMOS 2058             
1 20465U 90010A   26087.58290228  .00005361  00000+0  31496-3 0  9996
2 20465  82.4688  28.8103 0007458 268.6324  91.4051 15.11489763945094
SL-14 R/B               
1 20466U 90010B   26087.50440824  .00000536  00000+0  62060-4 0  9999
2 20466  82.4996 249.7102 0018594 235.4938 124.4522 14.83585981931278
SL-14 R/B               
1 20511U 90018B   26087.60779750  .00000475  00000+0  56566-4 0  9998
2 20511  82.5237 205.4106 0016960  34.2487 325.9817 14.82163341925381
HST                     
1 20580U 90037B   26087.60243902  .00009067  00000+0  29759-3 0  9999
2 20580  28.4720 270.9560 0001679 347.9689  12.0867 15.29770791776213
SL-16 R/B               
1 20625U 90046B   26087.57191191  .00000254  00000+0  15581-3 0  9994
2 20625  70.9976 258.2537 0016329 274.8301  85.0957 14.15016132851061
COSMOS 2084             
1 20663U 90055A   26087.58302486  .00002989  00000+0  21889-3 0  9993
2 20663  62.7892 271.1329 0014099 195.8880 164.1781 15.05752483939166
SL-6 R/B(2)             
1 20666U 90055D   26087.59157242  .00002067  00000+0  16353-3 0  9992
2 20666  62.7832 189.5670 0027891 351.2955   8.7656 15.03683860941032
SL-8 R/B                
1 20775U 90078B   26087.45394590  .00013235  00000+0  39210-3 0  9998
2 20775  82.9020 234.4248 0358517 310.7252  46.3331 14.89622994812094
SL-8 R/B                
1 21088U 91006B   26087.59216380  .00000089  00000+0  73985-4 0  9994
2 21088  82.9446 155.9928 0021857 345.8356 123.3110 13.77497081766670
OKEAN-3                 
1 21397U 91039A   26087.62948831  .00002479  00000+0  17302-3 0  9995
2 21397  82.5163 318.4928 0012336 266.7407  93.2408 15.04912536867880
COSMOS 2151             
1 21422U 91042A   26087.49331010  .00002605  00000+0  20613-3 0  9998
2 21422  82.4945  65.5318 0012425   4.3726 355.7604 15.00184498866010
SL-14 R/B               
1 21423U 91042B   26087.59733402  .00000504  00000+0  60686-4 0  9992
2 21423  82.4956 202.4558 0017198 174.1402 186.0017 14.81848352855879
